{
    "type": "FeatureCollection",
    "crs": {
        "type": "name",
        "properties": {
            "name": "urn:ogc:def:crs:OGC:1.3:CRS84"
        }
    },
    "features": [
        {
            "type": "Feature",
            "properties": {
                "field_id": "F01",
                "field_name": "North Wheat Field",
                "area_ha": 12.5
            },
            "geometry": {
                "type": "Polygon",
                "coordinates": [
                    [
                        [
                            76.948,
                            29.721
                        ],
                        [
                            76.9515,
                            29.721
                        ],
                        [
                            76.9515,
                            29.724
                        ],
                        [
                            76.948,
                            29.724
                        ],
                        [
                            76.948,
                            29.721
                        ]
                    ]
                ]
            }
        },
        {
            "type": "Feature",
            "properties": {
                "field_id": "F02",
                "field_name": "West Ridge Field",
                "area_ha": 8.3
            },
            "geometry": {
                "type": "Polygon",
                "coordinates": [
                    [
                        [
                            76.943,
                            29.718
                        ],
                        [
                            76.9465,
                            29.718
                        ],
                        [
                            76.9465,
                            29.7205
                        ],
                        [
                            76.943,
                            29.7205
                        ],
                        [
                            76.943,
                            29.718
                        ]
                    ]
                ]
            }
        },
        {
            "type": "Feature",
            "properties": {
                "field_id": "F03",
                "field_name": "East Maize Field",
                "area_ha": 15.1
            },
            "geometry": {
                "type": "Polygon",
                "coordinates": [
                    [
                        [
                            76.953,
                            29.718
                        ],
                        [
                            76.957,
                            29.718
                        ],
                        [
                            76.957,
                            29.721
                        ],
                        [
                            76.953,
                            29.721
                        ],
                        [
                            76.953,
                            29.718
                        ]
                    ]
                ]
            }
        },
        {
            "type": "Feature",
            "properties": {
                "field_id": "F04",
                "field_name": "South Barley Field",
                "area_ha": 10.4
            },
            "geometry": {
                "type": "Polygon",
                "coordinates": [
                    [
                        [
                            76.948,
                            29.714
                        ],
                        [
                            76.9515,
                            29.714
                        ],
                        [
                            76.9515,
                            29.717
                        ],
                        [
                            76.948,
                            29.717
                        ],
                        [
                            76.948,
                            29.714
                        ]
                    ]
                ]
            }
        },
        {
            "type": "Feature",
            "properties": {
                "field_id": "F05",
                "field_name": "Central Clover Field",
                "area_ha": 6.8
            },
            "geometry": {
                "type": "Polygon",
                "coordinates": [
                    [
                        [
                            76.948,
                            29.7175
                        ],
                        [
                            76.952,
                            29.7175
                        ],
                        [
                            76.952,
                            29.7205
                        ],
                        [
                            76.948,
                            29.7205
                        ],
                        [
                            76.948,
                            29.7175
                        ]
                    ]
                ]
            }
        }
    ]
}